[
    {
        "Altitude(m)": 604969.0889923915,
        "Argument of Periapsis(deg)": 0.0,
        "Eccentricity": 0.0,
        "Inclination(deg)": 60.0,
        "Latitude(deg)": -0.09254045494057936,
        "Longitude(deg)": 74.97752768499429,
        "Mean Anomaly(deg)": 0.0,
        "RAAN(deg)": 175.0,
        "Satellite Name": "Test1 770",
        "Satellite Number": 770,
        "Semi-Major Axis(m)": 6980739.136638005,
        "Time(s)": 0
    },
    {
        "Altitude(m)": 604900.0293302446,
        "Argument of Periapsis(deg)": 0.00010418945913296404,
        "Eccentricity": 0.0,
        "Inclination(deg)": 60.0,
        "Latitude(deg)": 0.44788567358803066,
        "Longitude(deg)": 75.24565025134866,
        "Mean Anomaly(deg)": 0.6201061454618275,
        "RAAN(deg)": 174.99957995086024,
        "Satellite Name": "Test1 770",
        "Satellite Number": 770,
        "Semi-Major Axis(m)": 6980739.136638005,
        "Time(s)": 10
    }
]